NORAD_CAT_ID,OBJECT_NAME,OBJECT_TYPE,EPOCH,MEAN_MOTION,ECCENTRICITY,INCLINATION,RA_OF_ASC_NODE,ARG_OF_PERICENTER,MEAN_ANOMALY,BSTAR,MEAN_MOTION_DOT,MEAN_MOTION_DDOT,TLE_LINE0,TLE_LINE1,TLE_LINE2,SEMIMAJOR_AXIS,PERIOD,APOGEE,PERIGEE,DECAYED
51148.0,STARLINK-3359,PAYLOAD,2022-12-14 00:31:54,15.088398800000002,0.0002623,53.2161,213.8356,28.8027,331.311,1.5044e-05,-4.9e-07,0.0,0 STARLINK-3359,1 51148U 22005AW  22348.02216117 -.00000049  00000-0  15044-4 0  9999,2 51148  53.2161 213.8356 0002623  28.8027 331.3110 15.08839880 51319,6917.880999999999,95.438,541.56,537.931,0.0
51148.0,STARLINK-3359,PAYLOAD,2022-12-14 08:28:50,15.08836428,0.000263,53.2159,212.3488,29.2123,330.9016,-3.438e-05,-8.36e-06,0.0,0 STARLINK-3359,1 51148U 22005AW  22348.35336350 -.00000836  00000-0 -34380-4 0  9996,2 51148  53.2159 212.3488 0002630  29.2123 330.9016 15.08836428 50253,6917.891,95.438,541.576,537.937,0.0
51148.0,STARLINK-3359,PAYLOAD,2022-12-14 21:11:55,15.08843,0.0002711,53.2158,209.97,29.9367,330.17800000000005,7.7189e-05,9.4e-06,0.0,0 STARLINK-3359,1 51148U 22005AW  22348.88328099  .00000940  00000-0  77189-4 0  9993,2 51148  53.2158 209.9700 0002711  29.9367 330.1780 15.08843000 50331,6917.871,95.437,541.612,537.861,0.0
51148.0,STARLINK-3359,PAYLOAD,2022-12-15 03:33:27,15.08849914,0.0002785,53.2166,208.7811,30.4323,329.68300000000005,0.00011075,1.475e-05,0.0,0 STARLINK-3359,1 51148U 22005AW  22349.14823645  .00001475  00000-0  11075-3 0  9995,2 51148  53.2166 208.7811 0002785  30.4323 329.6830 15.08849914 51486,6917.85,95.437,541.6419999999998,537.788,0.0
51148.0,STARLINK-3359,PAYLOAD,2022-12-15 13:05:46,15.088411,0.0002784,53.2154,206.9973,30.5395,329.5759,3.6317e-05,2.9e-06,0.0,0 STARLINK-3359,1 51148U 22005AW  22349.54568115  .00000290  00000-0  36317-4 0  9998,2 51148  53.2154 206.9973 0002784  30.5395 329.5759 15.08841100 51546,6917.877,95.437,541.668,537.816,0.0
51148.0,STARLINK-3359,PAYLOAD,2022-12-15 21:02:42,15.08838678,0.0002661,53.2164,205.51,31.218000000000004,328.897,0.00016094,2.274e-05,0.0,0 STARLINK-3359,1 51148U 22005AW  22349.87688086  .00002274  00000-0  16094-3 0  9997,2 51148  53.2164 205.5100 0002661  31.2180 328.8970 15.08838678 50483,6917.884,95.438,541.59,537.909,0.0
51148.0,STARLINK-3359,PAYLOAD,2022-12-15 22:38:05,15.08842664,0.000277,53.2165,205.2127,31.4138,328.7019,0.00011094,1.478e-05,0.0,0 STARLINK-3359,1 51148U 22005AW  22349.94311889  .00001478  00000-0  11094-3 0  9999,2 51148  53.2165 205.2127 0002770  31.4138 328.7019 15.08842664 50490,6917.871999999999,95.437,541.653,537.821,0.0
51148.0,STARLINK-3359,PAYLOAD,2022-12-16 17:42:43,15.08842512,0.000282,53.2164,201.6443,33.6519,326.4651,6.2196e-05,7.02e-06,0.0,0 STARLINK-3359,1 51148U 22005AW  22350.73799856  .00000702  00000-0  62196-4 0  9991,2 51148  53.2164 201.6443 0002820  33.6519 326.4651 15.08842512 51729,6917.873000000001,95.437,541.689,537.7869999999998,0.0
51148.0,STARLINK-3359,PAYLOAD,2022-12-16 20:53:29,15.08841172,0.0002814,53.2164,201.0494,33.001999999999995,327.1147,1.3119e-05,-8e-07,0.0,0 STARLINK-3359,1 51148U 22005AW  22350.87048021 -.00000080  00000-0  13119-4 0  9998,2 51148  53.2164 201.0494 0002814  33.0020 327.1147 15.08841172 50631,6917.877,95.437,541.688,537.795,0.0
51148.0,STARLINK-3359,PAYLOAD,2022-12-17 12:47:21,15.08831542,0.0003027,53.2163,198.0765,34.4147,325.7041,-9.9828e-05,-1.877e-05,0.0,0 STARLINK-3359,1 51148U 22005AW  22351.53289065 -.00001877  00000-0 -99828-4 0  9994,2 51148  53.2163 198.0765 0003027  34.4147 325.7041 15.08831542 50736,6917.906,95.438,541.865,537.677,0.0
51148.0,STARLINK-3359,PAYLOAD,2022-12-17 17:33:31,15.08823986,0.0002882,53.2163,197.1842,33.6513,326.4662,-5.389800000000001e-05,-1.146e-05,0.0,0 STARLINK-3359,1 51148U 22005AW  22351.73161519 -.00001146  00000-0 -53898-4 0  9995,2 51148  53.2163 197.1842 0002882  33.6513 326.4662 15.08823986 51874,6917.929,95.439,541.788,537.8009999999998,0.0
51148.0,STARLINK-3359,PAYLOAD,2022-12-18 06:16:36,15.08829073,0.0002898999999999,53.2161,194.8051,33.8234,326.2942,-3.689800000000001e-05,-8.76e-06,0.0,0 STARLINK-3359,1 51148U 22005AW  22352.26153529 -.00000876  00000-0 -36898-4 0  9996,2 51148  53.2161 194.8051 0002899  33.8234 326.2942 15.08829073 51959,6917.9140000000025,95.438,541.784,537.773,0.0
51148.0,STARLINK-3359,PAYLOAD,2022-12-18 20:35:04,15.08829794,0.000279,53.2158,192.1286,34.2318,325.8854,1.1881e-05,-9.9e-07,0.0,0 STARLINK-3359,1 51148U 22005AW  22352.85769601 -.00000099  00000-0  11881-4 0  9996,2 51148  53.2158 192.1286 0002790  34.2318 325.8854 15.08829794 50938,6917.9119999999975,95.438,541.707,537.846,0.0
51148.0,STARLINK-3359,PAYLOAD,2022-12-19 09:18:10,15.08828519,0.0002772,53.216,189.7495,34.3314,325.7857,0.00012393,1.684e-05,0.0,0 STARLINK-3359,1 51148U 22005AW  22353.38761773  .00001684  00000-0  12393-3 0  9995,2 51148  53.2160 189.7495 0002772  34.3314 325.7857 15.08828519 52121,6917.915,95.438,541.698,537.863,0.0
51148.0,STARLINK-3359,PAYLOAD,2022-12-19 20:25:51,15.08835069,0.0002816,53.2164,187.668,35.3415,324.7763,0.00013822,1.912e-05,0.0,0 STARLINK-3359,1 51148U 22005AW  22353.85129592  .00001912  00000-0  13822-3 0  9996,2 51148  53.2164 187.6680 0002816  35.3415 324.7763 15.08835069 51087,6917.895,95.438,541.7090000000002,537.812,0.0
51148.0,STARLINK-3359,PAYLOAD,2022-12-20 05:58:10,15.08839609,0.0002898,53.2167,185.8837,35.9929,324.1257,0.00015726,2.215e-05,0.0,0 STARLINK-3359,1 51148U 22005AW  22354.24873426  .00002215  00000-0  15726-3 0  9994,2 51148  53.2167 185.8837 0002898  35.9929 324.1257 15.08839609 52256,6917.882,95.438,541.751,537.742,0.0
51148.0,STARLINK-3359,PAYLOAD,2022-12-20 13:55:06,15.088442,0.0002885,53.2166,184.397,37.2118,322.9073,0.00014805,2.069e-05,0.0,0 STARLINK-3359,1 51148U 22005AW  22354.57993165  .00002069  00000-0  14805-3 0  9997,2 51148  53.2166 184.3970 0002885  37.2118 322.9073 15.08844200 51195,6917.868,95.437,541.7280000000002,537.737,0.0
51148.0,STARLINK-3359,PAYLOAD,2022-12-21 13:45:53,15.0884063,0.0003005,53.2167,179.9367,38.4732,321.6474,4.0837e-05,3.61e-06,0.0,0 STARLINK-3359,1 51148U 22005AW  22355.57353655  .00000361  00000-0  40837-4 0  9990,2 51148  53.2167 179.9367 0003005  38.4732 321.6474 15.08840630 52450,6917.878000000002,95.438,541.822,537.665,0.0
51148.0,STARLINK-3359,PAYLOAD,2022-12-22 12:01:16,15.08846811,0.0003035,53.2167,175.7736,39.9244,320.1971,1.6859000000000002e-05,-2e-07,0.0,0 STARLINK-3359,1 51148U 22005AW  22356.50089062 -.00000020  00000-0  16859-4 0  9992,2 51148  53.2167 175.7736 0003035  39.9244 320.1971 15.08846811 51486,6917.86,95.437,541.8240000000002,537.625,0.0
51148.0,STARLINK-3359,PAYLOAD,2022-12-22 18:22:49,15.088484,0.0003043,53.2165,174.5841,39.8,320.3215,2.9723000000000013e-05,1.85e-06,0.0,0 STARLINK-3359,1 51148U 22005AW  22356.76584778  .00000185  00000-0  29723-4 0  9999,2 51148  53.2165 174.5841 0003043  39.8000 320.3215 15.08848400 51520,6917.855,95.437,541.825,537.615,0.0
51148.0,STARLINK-3359,PAYLOAD,2022-12-22 21:33:35,15.08849756,0.0003049,53.2163,173.9892,39.9798,320.1418,2.852e-05,1.65e-06,0.0,0 STARLINK-3359,1 51148U 22005AW  22356.89832651  .00000165  00000-0  28520-4 0  9991,2 51148  53.2163 173.9892 0003049  39.9798 320.1418 15.08849756 52651,6917.851,95.437,541.825,537.606,0.0
51148.0,STARLINK-3359,PAYLOAD,2022-12-23 05:30:30,15.08847032,0.0003087,53.2165,172.5025,40.6102,319.512,8.0525e-05,9.93e-06,0.0,0 STARLINK-3359,1 51148U 22005AW  22357.22952490  .00000993  00000-0  80525-4 0  9995,2 51148  53.2165 172.5025 0003087  40.6102 319.5120 15.08847032 51595,6917.859,95.437,541.859,537.5880000000002,0.0
51148.0,STARLINK-3359,PAYLOAD,2022-12-23 18:13:36,15.08836145,0.0003133,53.2165,170.12400000000005,42.2032,317.9201,1.316e-05,-7.9e-07,0.0,0 STARLINK-3359,1 51148U 22005AW  22357.75945339 -.00000079  00000-0  13160-4 0  9994,2 51148  53.2165 170.1240 0003133  42.2032 317.9201 15.08836145 51674,6917.892,95.438,541.925,537.59,0.0
51148.0,STARLINK-3359,PAYLOAD,2022-12-23 21:24:23,15.08834789,0.0003053,53.217,169.5291,41.7008,318.4217,-5.5749e-06,-3.77e-06,0.0,0 STARLINK-3359,1 51148U 22005AW  22357.89193524 -.00000377  00000-0 -55749-5 0  9992,2 51148  53.2170 169.5291 0003053  41.7008 318.4217 15.08834789 52807,6917.896,95.438,541.873,537.649,0.0
51148.0,STARLINK-3359,PAYLOAD,2022-12-24 11:42:51,15.08841194,0.0003051,53.2173,166.8525,43.1745,316.9486,1.6621e-05,-2.4e-07,0.0,0 STARLINK-3359,1 51148U 22005AW  22358.48809054 -.00000024  00000-0  16621-4 0  9993,2 51148  53.2173 166.8525 0003051  43.1745 316.9486 15.08841194 52890,6917.877,95.437,541.852,537.631,0.0
51148.0,STARLINK-3359,PAYLOAD,2022-12-24 21:15:09,15.08843589,0.0003092,53.2172,165.0686,42.8925,317.2308,6.2151e-06,-1.9e-06,0.0,0 STARLINK-3359,1 51148U 22005AW  22358.88552861 -.00000190  00000-0  62151-5 0  9992,2 51148  53.2172 165.0686 0003092  42.8925 317.2308 15.08843589 51840,6917.869000000002,95.437,541.873,537.595,0.0
51148.0,STARLINK-3359,PAYLOAD,2022-12-24 22:50:32,15.08843969,0.0003087,53.217,164.7711,42.5993,317.5239,9.5166e-06,-1.37e-06,0.0,0 STARLINK-3359,1 51148U 22005AW  22358.95176800 -.00000137  00000-0  95166-5 0  9998,2 51148  53.2170 164.7711 0003087  42.5993 317.5239 15.08843969 51858,6917.868,95.437,541.869,537.5980000000002,0.0
51148.0,STARLINK-3359,PAYLOAD,2022-12-25 21:05:57,15.08830406,0.0003103,53.2166,160.608,42.4055,317.7176,1.6403e-05,-2.8e-07,0.0,0 STARLINK-3359,1 51148U 22005AW  22359.87913638 -.00000028  00000-0  16403-4 0  9993,2 51148  53.2166 160.6080 0003103  42.4055 317.7176 15.08830406 51993,6917.91,95.438,541.9209999999998,537.628,0.0
51148.0,STARLINK-3359,PAYLOAD,2022-12-25 22:41:20,15.08829872,0.00031,53.2164,160.3104,42.3759,317.7473,7.6571e-06,-1.67e-06,0.0,0 STARLINK-3359,1 51148U 22005AW  22359.94537733 -.00000167  00000-0  76571-5 0  9996,2 51148  53.2164 160.3104 0003100  42.3759 317.7473 15.08829872 53113,6917.911,95.438,541.9209999999998,537.632,0.0
